start=new Date('2023-06-29T00:00:00.000Z').valueOf();
sats=[{"ECCENTRICITY":"0.00011410","TLE_LINE2":"2 45751  53.0555 318.6509 0001141  91.4349 268.6771 15.06387285169127","REV_AT_EPOCH":"16912","ELEMENT_SET_NO":"999","LAUNCH_DATE":"2020-06-13","TLE_LINE1":"1 45751U 20038X   23179.64599220 -.00000101  00000-0  12076-4 0  9997","ARG_OF_PERICENTER":"91.4349","APOAPSIS":"548.043","CENTER_NAME":"EARTH","RCS_SIZE":"LARGE","FILE":"3945132","PERIAPSIS":"546.462","BSTAR":"0.00001207600000","MEAN_MOTION":"15.06387285","TIME_SYSTEM":"UTC","EPHEMERIS_TYPE":"0","NORAD_CAT_ID":"45751","SEMIMAJOR_AXIS":"6925.388","PERIOD":"95.593","OBJECT_TYPE":"PAYLOAD","CLASSIFICATION_TYPE":"U","MEAN_MOTION_DOT":"-0.00000101","OBJECT_NAME":"STARLINK-1464","INCLINATION":"53.0555","EPOCH":"2023-06-28T15:30:13.726080","COUNTRY_CODE":"US","REF_FRAME":"TEME","RA_OF_ASC_NODE":"318.6509","MEAN_ELEMENT_THEORY":"SGP4","DECAY_DATE":null,"MEAN_ANOMALY":"268.6771","MEAN_MOTION_DDOT":"0.0000000000000","OBJECT_ID":"2020-038X","SITE":"AFETR","GP_ID":"234609663"},{"MEAN_MOTION_DOT":"0.00009596","INCLINATION":"53.0545","OBJECT_NAME":"STARLINK-1476","COUNTRY_CODE":"US","EPOCH":"2023-06-28T09:24:00.065952","PERIOD":"95.593","SEMIMAJOR_AXIS":"6925.367","OBJECT_TYPE":"PAYLOAD","CLASSIFICATION_TYPE":"U","SITE":"AFETR","GP_ID":"234604047","MEAN_ANOMALY":"248.7817","MEAN_MOTION_DDOT":"0.0000000000000","OBJECT_ID":"2020-038Z","RA_OF_ASC_NODE":"319.7985","MEAN_ELEMENT_THEORY":"SGP4","REF_FRAME":"TEME","DECAY_DATE":null,"CENTER_NAME":"EARTH","ARG_OF_PERICENTER":"111.3296","TLE_LINE1":"1 45753U 20038Z   23179.39166743  .00009596  00000-0  66232-3 0  9999","APOAPSIS":"548.040","TLE_LINE2":"2 45753  53.0545 319.7985 0001166 111.3296 248.7817 15.06393950169089","ECCENTRICITY":"0.00011660","LAUNCH_DATE":"2020-06-13","ELEMENT_SET_NO":"999","REV_AT_EPOCH":"16908","MEAN_MOTION":"15.06393950","BSTAR":"0.00066232000000","NORAD_CAT_ID":"45753","TIME_SYSTEM":"UTC","EPHEMERIS_TYPE":"0","RCS_SIZE":"LARGE","FILE":"3944893","PERIAPSIS":"546.425"},{"RA_OF_ASC_NODE":"318.5846","MEAN_ELEMENT_THEORY":"SGP4","REF_FRAME":"TEME","DECAY_DATE":null,"SITE":"AFETR","GP_ID":"234609687","MEAN_ANOMALY":"274.4980","MEAN_MOTION_DDOT":"0.0000000000000","OBJECT_ID":"2020-038AA","PERIOD":"95.593","SEMIMAJOR_AXIS":"6925.391","OBJECT_TYPE":"PAYLOAD","CLASSIFICATION_TYPE":"U","OBJECT_NAME":"STARLINK-1477","MEAN_MOTION_DOT":"0.00020287","INCLINATION":"53.0547","COUNTRY_CODE":"US","EPOCH":"2023-06-28T15:51:27.681984","FILE":"3945122","RCS_SIZE":"LARGE","PERIAPSIS":"546.551","MEAN_MOTION":"15.06386203","BSTAR":"0.00137740000000","NORAD_CAT_ID":"45754","TIME_SYSTEM":"UTC","EPHEMERIS_TYPE":"0","TLE_LINE2":"2 45754  53.0547 318.5846 0001018  85.6125 274.4980 15.06386203168972","ECCENTRICITY":"0.00010180","LAUNCH_DATE":"2020-06-13","ELEMENT_SET_NO":"999","REV_AT_EPOCH":"16897","CENTER_NAME":"EARTH","ARG_OF_PERICENTER":"85.6125","TLE_LINE1":"1 45754U 20038AA  23179.66073706  .00020287  00000-0  13774-2 0  9998","APOAPSIS":"547.961"},{"CENTER_NAME":"EARTH","APOAPSIS":"547.938","ARG_OF_PERICENTER":"84.8092","TLE_LINE1":"1 45755U 20038AB  23179.41377294  .00017525  00000-0  11924-2 0  9997","LAUNCH_DATE":"2020-06-13","ELEMENT_SET_NO":"999","REV_AT_EPOCH":"16908","TLE_LINE2":"2 45755  53.0542 319.6965 0001061  84.8092 275.3018 15.06403509169088","ECCENTRICITY":"0.00010610","NORAD_CAT_ID":"45755","EPHEMERIS_TYPE":"0","TIME_SYSTEM":"UTC","MEAN_MOTION":"15.06403509","BSTAR":"0.00119240000000","PERIAPSIS":"546.468","FILE":"3944893","RCS_SIZE":"LARGE","COUNTRY_CODE":"US","EPOCH":"2023-06-28T09:55:49.982016","INCLINATION":"53.0542","MEAN_MOTION_DOT":"0.00017525","OBJECT_NAME":"STARLINK-1478","CLASSIFICATION_TYPE":"U","OBJECT_TYPE":"PAYLOAD","PERIOD":"95.592","SEMIMAJOR_AXIS":"6925.338","GP_ID":"234604440","SITE":"AFETR","OBJECT_ID":"2020-038AB","MEAN_MOTION_DDOT":"0.0000000000000","MEAN_ANOMALY":"275.3018","DECAY_DATE":null,"MEAN_ELEMENT_THEORY":"SGP4","RA_OF_ASC_NODE":"319.6965","REF_FRAME":"TEME"},{"PERIOD":"95.593","SEMIMAJOR_AXIS":"6925.390","OBJECT_TYPE":"PAYLOAD","CLASSIFICATION_TYPE":"U","INCLINATION":"53.0551","MEAN_MOTION_DOT":"0.00019071","OBJECT_NAME":"STARLINK-1484","EPOCH":"2023-06-28T16:11:19.540608","COUNTRY_CODE":"US","REF_FRAME":"TEME","RA_OF_ASC_NODE":"318.5121","MEAN_ELEMENT_THEORY":"SGP4","DECAY_DATE":null,"MEAN_ANOMALY":"278.8081","OBJECT_ID":"2020-038AC","MEAN_MOTION_DDOT":"0.0000000000000","SITE":"AFETR","GP_ID":"234609728","TLE_LINE2":"2 45756  53.0551 318.5121 0001021  81.3023 278.8081 15.06386375169127","ECCENTRICITY":"0.00010210","REV_AT_EPOCH":"16912","LAUNCH_DATE":"2020-06-13","ELEMENT_SET_NO":"999","TLE_LINE1":"1 45756U 20038AC  23179.67453172  .00019071  00000-0  12962-2 0  9997","ARG_OF_PERICENTER":"81.3023","APOAPSIS":"547.962","CENTER_NAME":"EARTH","RCS_SIZE":"LARGE","FILE":"3945124","PERIAPSIS":"546.548","BSTAR":"0.00129620000000","MEAN_MOTION":"15.06386375","TIME_SYSTEM":"UTC","EPHEMERIS_TYPE":"0","NORAD_CAT_ID":"45756"},{"GP_ID":"234609730","SITE":"AFETR","MEAN_MOTION_DDOT":"0.0000000000000","OBJECT_ID":"2020-038AD","MEAN_ANOMALY":"234.9138","MEAN_ELEMENT_THEORY":"SGP4","RA_OF_ASC_NODE":"311.8580","REF_FRAME":"TEME","DECAY_DATE":null,"OBJECT_NAME":"STARLINK-1486","MEAN_MOTION_DOT":"0.00036108","INCLINATION":"53.0544","COUNTRY_CODE":"US","EPOCH":"2023-06-28T15:22:27.226560","OBJECT_TYPE":"PAYLOAD","SEMIMAJOR_AXIS":"6890.996","PERIOD":"94.882","CLASSIFICATION_TYPE":"U","MEAN_MOTION":"15.17678510","BSTAR":"0.00177710000000","NORAD_CAT_ID":"45757","TIME_SYSTEM":"UTC","EPHEMERIS_TYPE":"0","RCS_SIZE":"LARGE","FILE":"3945125","PERIAPSIS":"511.329","CENTER_NAME":"EARTH","APOAPSIS":"514.393","TLE_LINE1":"1 45757U 20038AD  23179.64059290  .00036108  00000-0  17771-2 0  9991","ARG_OF_PERICENTER":"125.2064","TLE_LINE2":"2 45757  53.0544 311.8580 0002223 125.2064 234.9138 15.17678510169216","ECCENTRICITY":"0.00022230","ELEMENT_SET_NO":"999","LAUNCH_DATE":"2020-06-13","REV_AT_EPOCH":"16921"},{"COUNTRY_CODE":"US","EPOCH":"2023-06-28T16:12:12.370752","MEAN_MOTION_DOT":"0.00036127","OBJECT_NAME":"STARLINK-1487","INCLINATION":"53.0559","CLASSIFICATION_TYPE":"U","SEMIMAJOR_AXIS":"6887.376","PERIOD":"94.807","OBJECT_TYPE":"PAYLOAD","SITE":"AFETR","GP_ID":"234609731","MEAN_ANOMALY":"190.8473","MEAN_MOTION_DDOT":"0.0000000000000","OBJECT_ID":"2020-038AE","DECAY_DATE":null,"RA_OF_ASC_NODE":"310.7735","MEAN_ELEMENT_THEORY":"SGP4","REF_FRAME":"TEME","CENTER_NAME":"EARTH","ARG_OF_PERICENTER":"169.2563","TLE_LINE1":"1 45758U 20038AE  23179.67514318  .00036127  00000-0  17180-2 0  9997","APOAPSIS":"510.545","ELEMENT_SET_NO":"999","LAUNCH_DATE":"2020-06-13","REV_AT_EPOCH":"16923","TLE_LINE2":"2 45758  53.0559 310.7735 0001893 169.2563 190.8473 15.18875122169230","ECCENTRICITY":"0.00018930","NORAD_CAT_ID":"45758","EPHEMERIS_TYPE":"0","TIME_SYSTEM":"UTC","MEAN_MOTION":"15.18875122","BSTAR":"0.00171800000000","PERIAPSIS":"507.937","RCS_SIZE":"LARGE","FILE":"3945125"},{"INCLINATION":"53.0550","MEAN_MOTION_DOT":"0.00006814","OBJECT_NAME":"STARLINK-1493","EPOCH":"2023-06-28T16:02:04.274592","COUNTRY_CODE":"US","SEMIMAJOR_AXIS":"6925.359","PERIOD":"95.592","OBJECT_TYPE":"PAYLOAD","CLASSIFICATION_TYPE":"U","MEAN_ANOMALY":"276.8568","OBJECT_ID":"2020-038AF","MEAN_MOTION_DDOT":"0.0000000000000","SITE":"AFETR","GP_ID":"234611338","REF_FRAME":"TEME","RA_OF_ASC_NODE":"318.5499","MEAN_ELEMENT_THEORY":"SGP4","DECAY_DATE":null,"TLE_LINE1":"1 45759U 20038AF  23179.66810503  .00006814  00000-0  47595-3 0  9996","ARG_OF_PERICENTER":"83.2554","APOAPSIS":"548.032","CENTER_NAME":"EARTH","TLE_LINE2":"2 45759  53.0550 318.5499 0001168  83.2554 276.8568 15.06396744168936","ECCENTRICITY":"0.00011680","REV_AT_EPOCH":"16893","LAUNCH_DATE":"2020-06-13","ELEMENT_SET_NO":"999","BSTAR":"0.00047595000000","MEAN_MOTION":"15.06396744","TIME_SYSTEM":"UTC","EPHEMERIS_TYPE":"0","NORAD_CAT_ID":"45759","FILE":"3945200","RCS_SIZE":"LARGE","PERIAPSIS":"546.415"},{"CLASSIFICATION_TYPE":"U","PERIOD":"95.593","SEMIMAJOR_AXIS":"6925.381","OBJECT_TYPE":"PAYLOAD","COUNTRY_CODE":"US","EPOCH":"2023-06-28T16:07:22.819296","MEAN_MOTION_DOT":"0.00018384","INCLINATION":"53.0547","OBJECT_NAME":"STARLINK-1494","DECAY_DATE":null,"RA_OF_ASC_NODE":"318.5394","MEAN_ELEMENT_THEORY":"SGP4","REF_FRAME":"TEME","SITE":"AFETR","GP_ID":"234609411","MEAN_ANOMALY":"280.2411","MEAN_MOTION_DDOT":"0.0000000000000","OBJECT_ID":"2020-038AG","ELEMENT_SET_NO":"999","LAUNCH_DATE":"2020-06-13","REV_AT_EPOCH":"16893","TLE_LINE2":"2 45760  53.0547 318.5394 0001135  79.8706 280.2411 15.06389414168934","ECCENTRICITY":"0.00011350","CENTER_NAME":"EARTH","TLE_LINE1":"1 45760U 20038AG  23179.67179189  .00018384  00000-0  12502-2 0  9991","ARG_OF_PERICENTER":"79.8706","APOAPSIS":"548.032","PERIAPSIS":"546.460","FILE":"3945126","RCS_SIZE":"LARGE","NORAD_CAT_ID":"45760","TIME_SYSTEM":"UTC","EPHEMERIS_TYPE":"0","MEAN_MOTION":"15.06389414","BSTAR":"0.00125020000000"},{"INCLINATION":"53.0575","MEAN_MOTION_DOT":"0.00007730","OBJECT_NAME":"STARLINK-1499","COUNTRY_CODE":"US","EPOCH":"2023-06-27T15:29:47.297184","SEMIMAJOR_AXIS":"6879.181","PERIOD":"94.638","OBJECT_TYPE":"PAYLOAD","CLASSIFICATION_TYPE":"U","SITE":"AFETR","GP_ID":"234591815","MEAN_ANOMALY":"292.1548","OBJECT_ID":"2020-038AJ","MEAN_MOTION_DDOT":"0.0000000000000","RA_OF_ASC_NODE":"302.2565","MEAN_ELEMENT_THEORY":"SGP4","REF_FRAME":"TEME","DECAY_DATE":null,"CENTER_NAME":"EARTH","TLE_LINE1":"1 45762U 20038AJ  23178.64568631  .00007730  00000-0  35233-3 0  9993","ARG_OF_PERICENTER":"67.9717","APOAPSIS":"502.793","TLE_LINE2":"2 45762  53.0575 302.2565 0002540  67.9717 292.1548 15.21590058169083","ECCENTRICITY":"0.00025400","ELEMENT_SET_NO":"999","LAUNCH_DATE":"2020-06-13","REV_AT_EPOCH":"16908","MEAN_MOTION":"15.21590058","BSTAR":"0.00035233000000","NORAD_CAT_ID":"45762","TIME_SYSTEM":"UTC","EPHEMERIS_TYPE":"0","RCS_SIZE":"LARGE","FILE":"3944388","PERIAPSIS":"499.299"}];
